{"fetched_at":"2026-03-29T16:36:15Z","count":15609,"tles":[{"name":"HUBBLE 6","line1":"1 64562U 25135AL  26087.85112781  .00003867  00000+0  38453-3 0  9994","line2":"2 64562  97.7647 202.9731 0001605  95.3154 264.8248 14.92255125 41889","category":"Other"}]}